[{"OBJECT_NAME":"ONEWEB-0553","OBJECT_ID":"2023-043K","EPOCH":"2025-09-18T00:53:01.737888","MEAN_MOTION":13.16594694,"ECCENTRICITY":0.00023052,"INCLINATION":87.8979,"RA_OF_ASC_NODE":283.0131,"ARG_OF_PERICENTER":92.0816,"MEAN_ANOMALY":268.0579,"EPHEMERIS_TYPE":0,"CLASSIFICATION_TYPE":"U","NORAD_CAT_ID":56055,"ELEMENT_SET_NO":999,"REV_AT_EPOCH":12316,"BSTAR":0.00019900397,"MEAN_MOTION_DOT":8.9e-7,"MEAN_MOTION_DDOT":0},{"OBJECT_NAME":"ONEWEB-0554","OBJECT_ID":"2023-043L","EPOCH":"2025-09-18T00:34:47.640000","MEAN_MOTION":13.16593401,"ECCENTRICITY":0.00019855,"INCLINATION":87.897,"RA_OF_ASC_NODE":283.0395,"ARG_OF_PERICENTER":85.0182,"MEAN_ANOMALY":275.1176,"EPHEMERIS_TYPE":0,"CLASSIFICATION_TYPE":"U","NORAD_CAT_ID":56056,"ELEMENT_SET_NO":999,"REV_AT_EPOCH":12314,"BSTAR":5.3922811e-5,"MEAN_MOTION_DOT":3.3e-7,"MEAN_MOTION_DDOT":0},{"OBJECT_NAME":"ONEWEB-0555","OBJECT_ID":"2023-043M","EPOCH":"2025-09-18T01:29:28.631616","MEAN_MOTION":13.16596303,"ECCENTRICITY":0.00024891,"INCLINATION":87.898,"RA_OF_ASC_NODE":283.0025,"ARG_OF_PERICENTER":93.2514,"MEAN_ANOMALY":266.8902,"EPHEMERIS_TYPE":0,"CLASSIFICATION_TYPE":"U","NORAD_CAT_ID":56057,"ELEMENT_SET_NO":999,"REV_AT_EPOCH":12315,"BSTAR":0.00025706498,"MEAN_MOTION_DOT":1.11e-6,"MEAN_MOTION_DDOT":0},{"OBJECT_NAME":"ONEWEB-0557","OBJECT_ID":"2023-043N","EPOCH":"2025-09-18T01:50:01.233888","MEAN_MOTION":13.16594643,"ECCENTRICITY":0.00029454,"INCLINATION":87.8972,"RA_OF_ASC_NODE":283.0172,"ARG_OF_PERICENTER":72.5997,"MEAN_ANOMALY":287.5456,"EPHEMERIS_TYPE":0,"CLASSIFICATION_TYPE":"U","NORAD_CAT_ID":56058,"ELEMENT_SET_NO":999,"REV_AT_EPOCH":12315,"BSTAR":0.00011443236,"MEAN_MOTION_DOT":5.7e-7,"MEAN_MOTION_DDOT":0},{"OBJECT_NAME":"ONEWEB-0558","OBJECT_ID":"2023-043P","EPOCH":"2025-09-18T02:05:15.220608","MEAN_MOTION":13.21824683,"ECCENTRICITY":0.00016564,"INCLINATION":87.9199,"RA_OF_ASC_NODE":298.2871,"ARG_OF_PERICENTER":104.9384,"MEAN_ANOMALY":255.1933,"EPHEMERIS_TYPE":0,"CLASSIFICATION_TYPE":"U","NORAD_CAT_ID":56059,"ELEMENT_SET_NO":999,"REV_AT_EPOCH":12229,"BSTAR":8.4317487e-5,"MEAN_MOTION_DOT":4.8e-7,"MEAN_MOTION_DDOT":0},{"OBJECT_NAME":"ONEWEB-0559","OBJECT_ID":"2023-043Q","EPOCH":"2025-09-18T01:49:21.562464","MEAN_MOTION":13.21825225,"ECCENTRICITY":0.00015627,"INCLINATION":87.9201,"RA_OF_ASC_NODE":298.2816,"ARG_OF_PERICENTER":92.7926,"MEAN_ANOMALY":267.3387,"EPHEMERIS_TYPE":0,"CLASSIFICATION_TYPE":"U","NORAD_CAT_ID":56060,"ELEMENT_SET_NO":999,"REV_AT_EPOCH":12230,"BSTAR":-0.00023170524,"MEAN_MOTION_DOT":-8.3e-7,"MEAN_MOTION_DDOT":0},{"OBJECT_NAME":"ONEWEB-0566","OBJECT_ID":"2023-043R","EPOCH":"2025-09-18T01:40:16.289472","MEAN_MOTION":13.21825411,"ECCENTRICITY":0.00016617,"INCLINATION":87.9202,"RA_OF_ASC_NODE":298.2806,"ARG_OF_PERICENTER":99.2066,"MEAN_ANOMALY":260.9256,"EPHEMERIS_TYPE":0,"CLASSIFICATION_TYPE":"U","NORAD_CAT_ID":56061,"ELEMENT_SET_NO":999,"REV_AT_EPOCH":12228,"BSTAR":-0.00016479923,"MEAN_MOTION_DOT":-5.5e-7,"MEAN_MOTION_DDOT":0},{"OBJECT_NAME":"ONEWEB-0568","OBJECT_ID":"2023-043S","EPOCH":"2025-09-18T00:25:40.014336","MEAN_MOTION":13.16595049,"ECCENTRICITY":0.00022464,"INCLINATION":87.8983,"RA_OF_ASC_NODE":283.0091,"ARG_OF_PERICENTER":94.3662,"MEAN_ANOMALY":265.7726,"EPHEMERIS_TYPE":0,"CLASSIFICATION_TYPE":"U","NORAD_CAT_ID":56062,"ELEMENT_SET_NO":999,"REV_AT_EPOCH":12316,"BSTAR":5.2412097e-5,"MEAN_MOTION_DOT":3.3e-7,"MEAN_MOTION_DDOT":0},{"OBJECT_NAME":"ONEWEB-0574","OBJECT_ID":"2023-043T","EPOCH":"2025-09-18T01:31:12.304704","MEAN_MOTION":13.21826091,"ECCENTRICITY":0.00019949,"INCLINATION":87.9201,"RA_OF_ASC_NODE":298.2704,"ARG_OF_PERICENTER":89.0133,"MEAN_ANOMALY":271.1229,"EPHEMERIS_TYPE":0,"CLASSIFICATION_TYPE":"U","NORAD_CAT_ID":56063,"ELEMENT_SET_NO":999,"REV_AT_EPOCH":12232,"BSTAR":0.00017077842,"MEAN_MOTION_DOT":8.4e-7,"MEAN_MOTION_DDOT":0},{"OBJECT_NAME":"ONEWEB-0575","OBJECT_ID":"2023-043U","EPOCH":"2025-09-18T00:16:31.960128","MEAN_MOTION":13.16595131,"ECCENTRICITY":0.00022751,"INCLINATION":87.8976,"RA_OF_ASC_NODE":283.0144,"ARG_OF_PERICENTER":84.1539,"MEAN_ANOMALY":275.9851,"EPHEMERIS_TYPE":0,"CLASSIFICATION_TYPE":"U","NORAD_CAT_ID":56064,"ELEMENT_SET_NO":999,"REV_AT_EPOCH":12315,"BSTAR":-9.6795669e-5,"MEAN_MOTION_DOT":-2.4e-7,"MEAN_MOTION_DDOT":0},{"OBJECT_NAME":"ONEWEB-0576","OBJECT_ID":"2023-043V","EPOCH":"2025-09-18T01:38:37.269024","MEAN_MOTION":13.16594813,"ECCENTRICITY":0.00021196,"INCLINATION":87.8989,"RA_OF_ASC_NODE":282.9983,"ARG_OF_PERICENTER":91.5603,"MEAN_ANOMALY":268.5771,"EPHEMERIS_TYPE":0,"CLASSIFICATION_TYPE":"U","NORAD_CAT_ID":56065,"ELEMENT_SET_NO":999,"REV_AT_EPOCH":12315,"BSTAR":0.00022737864,"MEAN_MOTION_DOT":1.0e-6,"MEAN_MOTION_DDOT":0},{"OBJECT_NAME":"ONEWEB-0577","OBJECT_ID":"2023-043W","EPOCH":"2025-09-18T01:47:44.546496","MEAN_MOTION":13.16594574,"ECCENTRICITY":0.000236,"INCLINATION":87.8987,"RA_OF_ASC_NODE":282.9979,"ARG_OF_PERICENTER":78.5875,"MEAN_ANOMALY":281.5521,"EPHEMERIS_TYPE":0,"CLASSIFICATION_TYPE":"U","NORAD_CAT_ID":56066,"ELEMENT_SET_NO":999,"REV_AT_EPOCH":12318,"BSTAR":0.00018062196,"MEAN_MOTION_DOT":8.2e-7,"MEAN_MOTION_DDOT":0},{"OBJECT_NAME":"ONEWEB-0578","OBJECT_ID":"2023-043X","EPOCH":"2025-09-18T01:13:01.867584","MEAN_MOTION":13.2182615,"ECCENTRICITY":0.00021796,"INCLINATION":87.9199,"RA_OF_ASC_NODE":298.2827,"ARG_OF_PERICENTER":96.07,"MEAN_ANOMALY":264.0682,"EPHEMERIS_TYPE":0,"CLASSIFICATION_TYPE":"U","NORAD_CAT_ID":56067,"ELEMENT_SET_NO":999,"REV_AT_EPOCH":12228,"BSTAR":0.00017268215,"MEAN_MOTION_DOT":8.4e-7,"MEAN_MOTION_DDOT":0},{"OBJECT_NAME":"ONEWEB-0579","OBJECT_ID":"2023-043Y","EPOCH":"2025-09-18T00:59:24.572832","MEAN_MOTION":13.21825157,"ECCENTRICITY":0.00016597,"INCLINATION":87.9202,"RA_OF_ASC_NODE":298.2712,"ARG_OF_PERICENTER":92.0491,"MEAN_ANOMALY":268.0833,"EPHEMERIS_TYPE":0,"CLASSIFICATION_TYPE":"U","NORAD_CAT_ID":56068,"ELEMENT_SET_NO":999,"REV_AT_EPOCH":12229,"BSTAR":0.00020938602,"MEAN_MOTION_DOT":9.9e-7,"MEAN_MOTION_DDOT":0},{"OBJECT_NAME":"ONEWEB-0581","OBJECT_ID":"2023-043Z","EPOCH":"2025-09-18T00:07:24.451104","MEAN_MOTION":13.1659616,"ECCENTRICITY":0.00019887,"INCLINATION":87.897,"RA_OF_ASC_NODE":283.0308,"ARG_OF_PERICENTER":78.8678,"MEAN_ANOMALY":281.2676,"EPHEMERIS_TYPE":0,"CLASSIFICATION_TYPE":"U","NORAD_CAT_ID":56069,"ELEMENT_SET_NO":999,"REV_AT_EPOCH":12314,"BSTAR":0.00010886557,"MEAN_MOTION_DOT":5.4e-7,"MEAN_MOTION_DDOT":0},{"OBJECT_NAME":"ONEWEB-0609","OBJECT_ID":"2023-043AA","EPOCH":"2025-09-18T01:12:55.996704","MEAN_MOTION":13.15549703,"ECCENTRICITY":0.00018696,"INCLINATION":87.9026,"RA_OF_ASC_NODE":313.522,"ARG_OF_PERICENTER":99.3928,"MEAN_ANOMALY":260.7413,"EPHEMERIS_TYPE":0,"CLASSIFICATION_TYPE":"U","NORAD_CAT_ID":56070,"ELEMENT_SET_NO":999,"REV_AT_EPOCH":12065,"BSTAR":0.00028741927,"MEAN_MOTION_DOT":1.21e-6,"MEAN_MOTION_DDOT":0},{"OBJECT_NAME":"ONEWEB-0613","OBJECT_ID":"2023-043AB","EPOCH":"2025-09-18T01:06:05.295168","MEAN_MOTION":13.15535052,"ECCENTRICITY":0.00021518,"INCLINATION":87.9027,"RA_OF_ASC_NODE":313.5371,"ARG_OF_PERICENTER":79.5302,"MEAN_ANOMALY":280.607,"EPHEMERIS_TYPE":0,"CLASSIFICATION_TYPE":"U","NORAD_CAT_ID":56071,"ELEMENT_SET_NO":999,"REV_AT_EPOCH":12065,"BSTAR":-0.0042096959,"MEAN_MOTION_DOT":-1.571e-5,"MEAN_MOTION_DDOT":0}]
