ONEWEB-0553             
1 56055U 23043K   25261.03682567  .00000089  00000+0  19900-3 0  9994
2 56055  87.8979 283.0131 0002305  92.0816 268.0579 13.16594694123163
ONEWEB-0554             
1 56056U 23043L   25261.02416250  .00000033  00000+0  53923-4 0  9991
2 56056  87.8970 283.0395 0001985  85.0182 275.1176 13.16593401123143
ONEWEB-0555             
1 56057U 23043M   25261.06213694  .00000111  00000+0  25706-3 0  9997
2 56057  87.8980 283.0025 0002489  93.2514 266.8902 13.16596303123154
ONEWEB-0557             
1 56058U 23043N   25261.07640317  .00000057  00000+0  11443-3 0  9997
2 56058  87.8972 283.0172 0002945  72.5997 287.5456 13.16594643123150
ONEWEB-0558             
1 56059U 23043P   25261.08698172  .00000048  00000+0  84317-4 0  9992
2 56059  87.9199 298.2871 0001656 104.9384 255.1933 13.21824683122296
ONEWEB-0559             
1 56060U 23043Q   25261.07594401 -.00000083  00000+0 -23171-3 0  9994
2 56060  87.9201 298.2816 0001562  92.7926 267.3387 13.21825225122306
ONEWEB-0566             
1 56061U 23043R   25261.06963298 -.00000055  00000+0 -16480-3 0  9992
2 56061  87.9202 298.2806 0001661  99.2066 260.9256 13.21825411122282
ONEWEB-0568             
1 56062U 23043S   25261.01782424  .00000033  00000+0  52412-4 0  9998
2 56062  87.8983 283.0091 0002246  94.3662 265.7726 13.16595049123162
ONEWEB-0574             
1 56063U 23043T   25261.06333686  .00000084  00000+0  17078-3 0  9990
2 56063  87.9201 298.2704 0001994  89.0133 271.1229 13.21826091122325
ONEWEB-0575             
1 56064U 23043U   25261.01148102 -.00000024  00000+0 -96796-4 0  9994
2 56064  87.8976 283.0144 0002275  84.1539 275.9851 13.16595131123150
ONEWEB-0576             
1 56065U 23043V   25261.06848691  .00000100  00000+0  22738-3 0  9997
2 56065  87.8989 282.9983 0002119  91.5603 268.5771 13.16594813123150
ONEWEB-0577             
1 56066U 23043W   25261.07482114  .00000082  00000+0  18062-3 0  9997
2 56066  87.8987 282.9979 0002360  78.5875 281.5521 13.16594574123183
ONEWEB-0578             
1 56067U 23043X   25261.05071606  .00000084  00000+0  17268-3 0  9995
2 56067  87.9199 298.2827 0002179  96.0700 264.0682 13.21826150122280
ONEWEB-0579             
1 56068U 23043Y   25261.04125663  .00000099  00000+0  20939-3 0  9993
2 56068  87.9202 298.2712 0001659  92.0491 268.0833 13.21825157122293
ONEWEB-0581             
1 56069U 23043Z   25261.00514411  .00000054  00000+0  10887-3 0  9995
2 56069  87.8970 283.0308 0001988  78.8678 281.2676 13.16596160123142
ONEWEB-0609             
1 56070U 23043AA  25261.05064811  .00000121  00000+0  28742-3 0  9990
2 56070  87.9026 313.5220 0001869  99.3928 260.7413 13.15549703120657
ONEWEB-0613             
1 56071U 23043AB  25261.04589462 -.00001571  00000+0 -42097-2 0  9994
2 56071  87.9027 313.5371 0002151  79.5302 280.6070 13.15535052120659
